0 SL-12 R/B(AUX MOTOR)
1 25054U 97070F   13282.50938983  .00014644  00000-0  18625-2 0  9050
2 25054 046.6000 292.3670 4871262 326.2914 206.2496 05.85465703294883
0 SL-12 R/B(AUX MOTOR)
1 25054U 97070F   13283.11008828  .00014096  00000-0  17917-2 0  9069
2 25054 046.5995 291.7826 4871144 326.8732 032.3063 05.85481618294919
0 SL-12 R/B(AUX MOTOR)
1 25054U 97070F   13285.33889051  .00014073  00000-0  17805-2 0  9072
2 25054 046.5983 289.6143 4870669 329.0232 050.1921 05.85546108295047
0 SL-12 R/B(AUX MOTOR)
1 25054U 97070F   13287.20659650  .00016396  00000-0  20703-2 0  9082
2 25054 046.5968 287.7969 4870362 330.8210 027.4000 05.85596764295151
0 SL-12 R/B(AUX MOTOR)
1 25054U 97070F   13289.26477065  .00016983  00000-0  21507-2 0  9094
2 25054 046.5953 285.7939 4869881 332.8122 046.5463 05.85678111295273
0 SL-12 R/B(AUX MOTOR)
1 25054U 97070F   13290.10611087  .00017331  00000-0  21997-2 0  9106
2 25054 046.5945 284.9749 4869733 333.6214 020.4802 05.85702692295327
0 SL-12 R/B(AUX MOTOR)
1 25054U 97070F   13291.81841902  .00019663  00000-0  25044-2 0  9114
2 25054 046.5929 283.3080 4869424 335.2661 031.1049 05.85755383295429
0 SL-12 R/B(AUX MOTOR)
1 25054U 97070F   13294.03292006  .00017999  00000-0  22964-2 0  9125
2 25054 046.5913 281.1514 4868921 337.4296 021.1303 05.85854985295553
0 SL-12 R/B(AUX MOTOR)
1 25054U 97070F   13295.23746647  .00018968  00000-0  24176-2 0  9138
2 25054 046.5901 279.9782 4868648 338.5911 041.6389 05.85902901295625
